     2.100          NAVIGATION                              RINEX VERSION / TYPE
fic2rin                                 04/20/2013 00:15:19 PGM / RUN BY / DATE
                                                            END OF HEADER
22 13  4 19 18  0  0.0  .164887402207D-03  .102318153949D-11  .000000000000D+00
     .580000000000D+02  .349687500000D+02  .562880589093D-08 -.792870909867D+00
     .195205211639D-05  .646435772069D-02  .614486634731D-05  .515364619064D+04
     .496800000000D+06 -.409781932831D-07  .335210146254D+00  .137835741043D-06
     .925659368034D+00  .243281250000D+03 -.204302731999D+01 -.869286209260D-08
     .177507393895D-09  .100000000000D+01  .173600000000D+04  .000000000000D+00
     .340000000000D+01  .000000000000D+00 -.172294676304D-07  .580000000000D+02
     .489606000000D+06  .400000000000D+01
23 13  4 19 18  0  0.0  .936570577323D-04 -.363797880709D-11  .000000000000D+00
     .320000000000D+02 -.812500000000D+00  .476341270097D-08 -.285659547050D+01
    -.447034835815D-07  .839272490703D-02  .774115324020D-05  .515372634888D+04
     .496800000000D+06 -.143423676491D-06  .139118343482D+01 -.670552253723D-07
     .956048708660D+00  .232468750000D+03 -.290730889208D+01 -.807819363205D-08
    -.208222959036D-09  .100000000000D+01  .173600000000D+04  .000000000000D+00
     .240000000000D+01  .000000000000D+00 -.200234353542D-07  .320000000000D+02
     .489606000000D+06  .400000000000D+01
24 13  4 19 18  0  0.0 -.478979200125D-05 -.682121026330D-12  .000000000000D+00
     .320000000000D+02  .441875000000D+02  .455554689967D-08  .252967349686D+01
     .225193798542D-05  .895605655387D-03  .897422432899D-05  .515369236565D+04
     .496800000000D+06 -.260770320892D-07  .241809289772D+01  .931322574615D-08
     .959055837714D+00  .204468750000D+03  .359682147097D+00 -.808426531353D-08
     .432160858377D-10  .100000000000D+01  .173600000000D+04  .000000000000D+00
     .240000000000D+01  .000000000000D+00  .279396772385D-08  .320000000000D+02
     .489606000000D+06  .400000000000D+01
25 13  4 19 18  0  0.0  .890078954399D-04  .386535248253D-11  .000000000000D+00
     .900000000000D+02  .993750000000D+01  .449733018900D-08  .677342687733D+00
     .592321157455D-06  .249014596920D-02  .478141009808D-05  .515355397606D+04
     .496800000000D+06 -.149011611938D-07 -.281691219229D+01  .353902578354D-07
     .972714265568D+00  .290687500000D+03  .590306923739D+00 -.826391565383D-08
     .350014579512D-10  .100000000000D+01  .173600000000D+04  .000000000000D+00
     .340000000000D+01  .000000000000D+00  .558793544769D-08  .900000000000D+02
     .489606000000D+06  .400000000000D+01
27 13  4 19 18  0  0.0 -.178767833859D-03  .125055521494D-11  .000000000000D+00
     .114000000000D+03  .737500000000D+01  .562594862906D-08 -.732383957886D+00
     .298023223877D-06  .611848826520D-02  .498071312904D-05  .515365868950D+04
     .496800000000D+06  .111758708954D-07 -.280046705618D+01  .167638063431D-06
     .977547729347D+00  .290437500000D+03  .837045546993D+00 -.820105589261D-08
    -.571452374714D-11  .100000000000D+01  .173600000000D+04  .000000000000D+00
     .340000000000D+01  .630000000000D+02 -.190921127796D-07  .114000000000D+03
     .489606000000D+06  .400000000000D+01
28 13  4 19 18  0  0.0  .251333229244D-03  .329691829393D-11  .000000000000D+00
     .320000000000D+02 -.537500000000D+01  .430232206613D-08 -.912872619917D+00
    -.104308128357D-06  .185797440354D-01  .532530248165D-05  .515364065933D+04
     .496800000000D+06 -.197440385818D-06 -.275445290344D+01  .251457095146D-06
     .983006450164D+00  .290593750000D+03 -.177118359615D+01 -.834999066777D-08
    -.357157734196D-11  .100000000000D+01  .173600000000D+04  .000000000000D+00
     .240000000000D+01  .000000000000D+00 -.107102096081D-07  .320000000000D+02
     .489606000000D+06  .400000000000D+01
29 13  4 19 18  0  0.0  .427869614214D-03  .352429196937D-11  .000000000000D+00
     .780000000000D+02 -.743750000000D+02  .445018536808D-08  .115253724867D+01
    -.394135713577D-05  .197108904831D-02  .773742794991D-05  .515366459465D+04
     .496800000000D+06  .633299350739D-07 -.171485696814D+01 -.335276126862D-07
     .965451494656D+00  .232312500000D+03 -.105217841470D+01 -.810605193531D-08
    -.193579491934D-09  .100000000000D+01  .173600000000D+04  .000000000000D+00
     .240000000000D+01  .000000000000D+00 -.931322574615D-08  .780000000000D+02
     .489606000000D+06  .400000000000D+01
30 13  4 19 18  0  0.0  .134981237352D-04  .216004991671D-10  .000000000000D+00
     .120000000000D+02  .199375000000D+02  .455233248006D-08 -.168972734466D+01
     .113807618618D-05  .109409604920D-01  .517256557941D-05  .515364494896D+04
     .496800000000D+06  .633299350739D-07 -.291073534319D+01  .307336449623D-06
     .963754613551D+00  .280312500000D+03  .161342747416D+01 -.817926927082D-08
     .314298806093D-10  .100000000000D+01  .173600000000D+04  .000000000000D+00
     .685000000000D+01  .630000000000D+02 -.419095158577D-08  .120000000000D+02
     .489606000000D+06  .400000000000D+01
31 13  4 19 18  0  0.0  .311270356178D-03  .147792889038D-11  .000000000000D+00
     .420000000000D+02  .295625000000D+02  .408016995546D-08  .177041378086D+01
     .174716114998D-05  .794395164121D-02  .842846930027D-05  .515357765007D+04
     .496800000000D+06  .113621354103D-06  .245034490025D+01 -.931322574615D-08
     .980534724258D+00  .221843750000D+03 -.744265690751D+00 -.778639576321D-08
    -.105004373854D-09  .100000000000D+01  .173600000000D+04  .000000000000D+00
     .240000000000D+01  .000000000000D+00 -.130385160446D-07  .420000000000D+02
     .489606000000D+06  .400000000000D+01
32 13  4 19 18  0  0.0 -.551328528672D-03 -.238742359215D-11  .000000000000D+00
     .720000000000D+02  .303750000000D+02  .499306512406D-08  .232309855509D+01
     .146031379700D-05  .115677644499D-01  .607408583164D-05  .515371364784D+04
     .496800000000D+06  .894069671631D-07  .418004904885D+00  .262632966042D-06
     .949827702193D+00  .252968750000D+03 -.372509270289D+00 -.828963101069D-08
     .364300888880D-10  .100000000000D+01  .173600000000D+04  .000000000000D+00
     .240000000000D+01  .000000000000D+00 -.279396772385D-08  .720000000000D+02
     .489606000000D+06  .400000000000D+01
25 13  4 19 17 59 44.0  .890092924237D-04  .386535248253D-11  .000000000000D+00
     .000000000000D+00  .993750000000D+01  .449733018900D-08  .675007139020D+00
     .592321157455D-06  .249013747089D-02  .478141009808D-05  .515355397415D+04
     .496784000000D+06 -.149011611938D-07 -.281691206502D+01  .353902578354D-07
     .972714250939D+00  .290687500000D+03  .590308562207D+00 -.826391565383D-08
     .350014579512D-10  .100000000000D+01  .173600000000D+04  .000000000000D+00
     .240000000000D+01  .000000000000D+00  .558793544769D-08  .000000000000D+00
     .491436000000D+06  .400000000000D+01
 1 13  4 19 17 59 44.0  .177668407559D-04  .363797880709D-11  .000000000000D+00
     .500000000000D+01  .250000000000D+00  .438696844913D-08  .243108002904D+01
     .856816768646D-07  .176727655344D-02  .956282019615D-05  .515370372772D+04
     .496784000000D+06 -.409781932831D-07 -.714728884653D+00 -.223517417908D-07
     .960249397465D+00  .192750000000D+03  .290350127620D+00 -.796640326124D-08
     .208937274505D-09  .100000000000D+01  .173600000000D+04  .000000000000D+00
     .240000000000D+01  .000000000000D+00  .838190317154D-08  .500000000000D+01
     .492756000000D+06  .400000000000D+01
10 13  4 19 17 59 44.0 -.771316699684D-04 -.113686837722D-11  .000000000000D+00
     .600000000000D+01  .262812500000D+02  .521593155020D-08 -.659087660092D+00
     .163726508617D-05  .123525109375D-01  .621378421783D-05  .515362335014D+04
     .496784000000D+06  .931322574615D-07  .348784410968D+00  .203028321266D-06
     .944130707131D+00  .251218750000D+03  .799593833287D+00 -.856678541243D-08
     .108933108930D-09  .100000000000D+01  .173600000000D+04  .000000000000D+00
     .240000000000D+01  .000000000000D+00 -.279396772385D-08  .600000000000D+01
     .493986000000D+06  .400000000000D+01
 1 13  4 19 19 59 44.0  .177929177880D-04  .363797880709D-11  .000000000000D+00
     .600000000000D+01 -.521875000000D+01  .432660879205D-08 -.280194366132D+01
    -.184401869774D-06  .176858913619D-02  .101644545794D-04  .515370129395D+04
     .503984000000D+06  .447034835815D-07 -.714785828739D+00  .167638063431D-07
     .960251302184D+00  .184562500000D+03  .290350247579D+00 -.787104214621D-08
     .198222542479D-09  .100000000000D+01  .173600000000D+04  .000000000000D+00
     .240000000000D+01  .000000000000D+00  .838190317154D-08  .600000000000D+01
     .496806000000D+06  .400000000000D+01
10 13  4 19 19 59 44.0 -.771400518715D-04 -.113686837722D-11  .000000000000D+00
     .780000000000D+02  .319375000000D+02  .513664253321D-08  .391128122731D+00
     .168383121490D-05  .123532993020D-01  .630132853985D-05  .515362485886D+04
     .503984000000D+06 -.670552253723D-07  .348722645104D+00  .173225998878D-06
     .944131366907D+00  .250968750000D+03  .799594166832D+00 -.857857161766D-08
     .689314426998D-10  .100000000000D+01  .173600000000D+04  .000000000000D+00
     .240000000000D+01  .000000000000D+00 -.279396772385D-08  .780000000000D+02
     .496806000000D+06  .400000000000D+01
25 13  4 19 19 59 44.0  .890367664397D-04  .386535248253D-11  .000000000000D+00
     .100000000000D+01  .706250000000D+01  .450161608181D-08  .172499398687D+01
     .366941094398D-06  .249033153523D-02  .515021383762D-05  .515355528069D+04
     .503984000000D+06 -.109896063805D-06 -.281697181352D+01  .484287738800D-07
     .972714698592D+00  .286656250000D+03  .590575556460D+00 -.822927135361D-08
     .914323799542D-10  .100000000000D+01  .173600000000D+04  .000000000000D+00
     .240000000000D+01  .000000000000D+00  .558793544769D-08  .100000000000D+01
     .496806000000D+06  .400000000000D+01
